STARLINK-37050          
1 68228U 26053X   26087.16668981 -.00318337  00000+0 -17106-2 0  9993
2 68228  97.2790 322.3471 0001010 127.2517  33.5383 15.80967656  2966
STARLINK-37081          
1 68229U 26053Y   26087.16668981 -.00950777  00000+0 -53560-2 0  9998
2 68229  97.2779 322.3518 0001661 103.9677  69.3460 15.81508031  2980
STARLINK-37100          
1 68230U 26053Z   26087.16668981 -.00503298  00000+0 -27390-2 0  9994
2 68230  97.2786 322.3487 0001736  91.7976  73.1729 15.81144959  2980
STARLINK-37104          
1 68231U 26053AA  26087.16668981 -.00744204  00000+0 -41296-2 0  9990
2 68231  97.2781 322.3503 0001158  84.1144  85.0398 15.81320829  2982
STARLINK-37027          
1 68232U 26054A   26087.16668981 -.00066373  00000+0 -33497-3 0  9991
2 68232  53.1589 220.0752 0000974 128.4978 313.9645 15.80895717  2881
STARLINK-37132          
1 68233U 26054B   26087.16668981 -.00053972  00000+0 -27137-3 0  9997
2 68233  53.1589 220.0661 0001202  41.7361  44.9975 15.80891472  2969
STARLINK-37101          
1 68234U 26054C   26087.16668981 -.00023079  00000+0 -11366-3 0  9990
2 68234  53.1587 220.0573 0000938  63.1146  27.8945 15.80880829  2886
STARLINK-36963          
1 68235U 26054D   26087.16668981  .00036251  00000+0  18658-3 0  9996
2 68235  53.1585 220.0398 0000916  86.2913  13.2724 15.80855443  2882
STARLINK-37127          
1 68236U 26054E   26087.16668981  .00042757  00000+0  28222-3 0  9993
2 68236  53.1594 220.0773 0001123  82.7835 358.3522 15.75195030  2966
STARLINK-37095          
1 68237U 26054F   26087.16668981 -.01889772  00000+0 -12131-1 0  9993
2 68237  53.1590 220.0346 0001162  70.9635  30.7982 15.78672254  2882
STARLINK-37097          
1 68238U 26054G   26087.16668981  .00008965  00000+0  48908-4 0  9992
2 68238  53.1585 220.0221 0000763  63.7524  44.3452 15.80873932  2884
STARLINK-37096          
1 68239U 26054H   26087.16668981 -.00007207  00000+0 -33005-4 0  9995
2 68239  53.1586 220.0043 0000874  64.6310  52.0101 15.80873364  2880
